STARLINK-31795          
1 59645U 24082Q   26164.56869138  .00002047  00000+0  83902-4 0  9998
2 59645  43.0011 259.7650 0000575 276.3547  83.7239 15.27576802120148
STARLINK-31796          
1 59646U 24082R   26164.16148548  .00001706  00000+0  71495-4 0  9995
2 59646  43.0005 320.5863 0001555 254.6336 105.4344 15.27585959119576
STARLINK-31801          
1 59647U 24082S   26164.13336100  .00000990  00000+0  45488-4 0  9993
2 59647  42.9947 321.2307 0001818 283.7177  76.3472 15.27576977119454
STARLINK-31787          
1 59650U 24082V   26164.16533326 -.00001728  00000+0 -53170-4 0  9998
2 59650  43.0289 320.6299 0005518 294.1198  65.9077 15.27577061119610
STARLINK-31277          
1 59651U 24082W   26163.71535598 -.00000126  00000+0  49455-5 0  9994
2 59651  43.0001 323.2580 0002423 266.9342  93.1232 15.27574007119540
STARLINK-31799          
1 59652U 24082X   26163.68724608  .00000594  00000+0  31125-4 0  9995
2 59652  43.0175 312.6534 0001488 282.5575  77.5110 15.27580165119516
STARLINK-31764          
1 59653U 24082Y   26164.15117893 -.00011906  00000+0 -42335-3 0  9996
2 59653  42.9959 320.5106 0000787  61.3005 298.7925 15.27618006119618
STARLINK-31589          
1 59654U 24084A   26164.60195310 -.00001692  00000+0 -51928-4 0  9999
2 59654  43.0115 219.9741 0004468 273.8243  86.2098 15.27562278119064
STARLINK-31665          
1 59655U 24084B   26164.41398751  .00001211  00000+0  53517-4 0  9994
2 59655  43.0095 217.6899 0001893 282.5905  77.4735 15.27582662119050
STARLINK-31912          
1 59656U 24084C   26160.51087480  .00001106  00000+0  49715-4 0  9994
2 59656  43.0053 243.4504 0001031 284.6171  75.4566 15.27587296118414
STARLINK-31904          
1 59657U 24084D   26164.42379226 -.00000932  00000+0 -24345-4 0  9991
2 59657  43.0073 221.2204 0001027 278.8155  81.2581 15.27571933119010
STARLINK-31858          
1 59658U 24084E   26164.59424260  .00001101  00000+0  49498-4 0  9992
2 59658  43.0018 219.9112 0001246 273.4599  86.6110 15.27593783119045
STARLINK-31881          
1 59659U 24084F   26164.45624335 -.00000365  00000+0 -37321-5 0  9999
2 59659  43.0016 217.1326 0000965 271.1846  88.8895 15.27578225119068
STARLINK-31885          
1 59660U 24084G   26164.42169661  .00001234  00000+0  54372-4 0  9992
2 59660  43.0002 217.7344 0001268 251.3246 108.7468 15.27581422119052
STARLINK-31880          
1 59661U 24084H   26163.88447246  .00000177  00000+0  15962-4 0  9997
2 59661  43.0067 220.5919 0001585 297.2216  62.8474 15.27579792118976
STARLINK-31886          
1 59662U 24084J   26164.43021063 -.00000044  00000+0  79122-5 0  9998
2 59662  43.0019 221.2620 0001069 244.6034 115.4707 15.27577345119014
STARLINK-31909          
1 59663U 24084K   26164.45319682  .00000468  00000+0  26545-4 0  9997
2 59663  43.0023 220.6131 0001171 272.4794  87.5923 15.27580096119023
STARLINK-31910          
1 59664U 24084L   26163.87884796 -.00000118  00000+0  52581-5 0  9999
2 59664  43.0117 223.9950 0001773 275.2992  84.7658 15.27575483118939
STARLINK-31902          
1 59666U 24084N   26164.66668981  .00052859  00000+0  19186-2 0  9994
2 59666  42.9994 220.0252 0001354 278.3799 261.2360 15.27546079  5823
STARLINK-31913          
1 59667U 24084P   26163.88060214  .00000649  00000+0  33129-4 0  9998
2 59667  43.0134 220.5557 0003276 283.9389  76.1098 15.27582476118970
STARLINK-31866          
1 59668U 24084Q   26163.86054252 -.00000294  00000+0 -11477-5 0  9993
2 59668  43.0022 216.9240 0001531 278.8264  81.2414 15.27573992119010
STARLINK-31917          
1 59669U 24084R   26163.89683696  .00000138  00000+0  14528-4 0  9991
2 59669  42.9941 224.1224 0000900 228.8422 131.2352 15.27573945118937
STARLINK-31860          
1 59670U 24084S   26164.41783534  .00003646  00000+0  14193-3 0  9998
2 59670  43.0193 217.7176 0002488 288.3261  71.7321 15.27593436119032
STARLINK-31854          
1 59671U 24084T   26164.50472275  .00001224  00000+0  53979-4 0  9992
2 59671  43.0011 187.6558 0001006 274.4877  85.5860 15.27580512119385
STARLINK-31842          
1 59672U 24084U   26164.42555034  .00001323  00000+0  57594-4 0  9996
2 59672  43.0124 217.7665 0001818 287.0545  73.0107 15.27587166119050
STARLINK-31871          
1 59673U 24084V   26163.88911535  .00001198  00000+0  53065-4 0  9997
2 59673  43.0041 224.0686 0001644 266.9202  93.1461 15.27586257118938
STARLINK-31875          
1 59674U 24084W   26163.88705030  .00000205  00000+0  16991-4 0  9994
2 59674  43.0037 220.6022 0001852 269.2755  90.7885 15.27574800118978
STARLINK-31877          
1 59675U 24084X   26164.42763669  .00000621  00000+0  32109-4 0  9999
2 59675  43.0125 221.2432 0003290 286.3727  73.6763 15.27581814119010
STARLINK-31884          
1 59676U 24084Y   26162.32371356  .00000980  00000+0  45119-4 0  9998
2 59676  42.9949 232.9804 0000947 172.2837 187.8030 15.27578474118692
STARLINK-32108          
1 59682U 24086A   26163.91589118  .00000408  00000+0  24348-4 0  9996
2 59682  43.0019 245.7148 0001173 280.7973  79.2747 15.27577325118626
