OBJECT_NAME,OBJECT_ID,EPOCH,MEAN_MOTION,ECCENTRICITY,INCLINATION,RA_OF_ASC_NODE,ARG_OF_PERICENTER,MEAN_ANOMALY,EPHEMERIS_TYPE,CLASSIFICATION_TYPE,NORAD_CAT_ID,ELEMENT_SET_NO,REV_AT_EPOCH,BSTAR,MEAN_MOTION_DOT,MEAN_MOTION_DDOT
STARLINK-31795,2024-082Q,2026-06-13T13:38:54.935232,15.27576802,.00005751,43.0011,259.7650,276.3547,83.7239,0,U,59645,999,12014,.83902349E-4,.2047E-4,0
STARLINK-31796,2024-082R,2026-06-13T03:52:32.345472,15.27585959,.0001555,43.0005,320.5863,254.6336,105.4344,0,U,59646,999,11957,.71494616E-4,.1706E-4,0
STARLINK-31801,2024-082S,2026-06-13T03:12:02.390400,15.27576977,.00018184,42.9947,321.2307,283.7177,76.3472,0,U,59647,999,11945,.45488037E-4,.99E-5,0
STARLINK-31787,2024-082V,2026-06-13T03:58:04.793664,15.27577061,.00055183,43.0289,320.6299,294.1198,65.9077,0,U,59650,999,11961,-.53170305E-4,-.1728E-4,0
STARLINK-31277,2024-082W,2026-06-12T17:10:06.756672,15.27574007,.00024237,43.0001,323.2580,266.9342,93.1232,0,U,59651,999,11954,.4945472E-5,-.126E-5,0
STARLINK-31799,2024-082X,2026-06-12T16:29:38.061312,15.27580165,.00014889,43.0175,312.6534,282.5575,77.5110,0,U,59652,999,11951,.31125241E-4,.594E-5,0
STARLINK-31764,2024-082Y,2026-06-13T03:37:41.859552,15.27618006,.00007871,42.9959,320.5106,61.3005,298.7925,0,U,59653,999,11961,-.42334788E-3,-.11906E-3,0
STARLINK-31589,2024-084A,2026-06-13T14:26:48.747840,15.27562278,.00044683,43.0115,219.9741,273.8243,86.2098,0,U,59654,999,11906,-.51928474E-4,-.1692E-4,0
STARLINK-31665,2024-084B,2026-06-13T09:56:08.520864,15.27582662,.00018932,43.0095,217.6899,282.5905,77.4735,0,U,59655,999,11905,.53517149E-4,.1211E-4,0
STARLINK-31912,2024-084C,2026-06-09T12:15:39.582720,15.27587296,.00010316,43.0053,243.4504,284.6171,75.4566,0,U,59656,999,11841,.49714872E-4,.1106E-4,0
STARLINK-31904,2024-084D,2026-06-13T10:10:15.651264,15.27571933,.00010275,43.0073,221.2204,278.8155,81.2581,0,U,59657,999,11901,-.24344703E-4,-.932E-5,0
STARLINK-31858,2024-084E,2026-06-13T14:15:42.560640,15.27593783,.00012461,43.0018,219.9112,273.4599,86.6110,0,U,59658,999,11904,.49497851E-4,.1101E-4,0
STARLINK-31881,2024-084F,2026-06-13T10:56:59.425440,15.27578225,.00009653,43.0016,217.1326,271.1846,88.8895,0,U,59659,999,11906,-.3732136E-5,-.365E-5,0
STARLINK-31885,2024-084G,2026-06-13T10:07:14.587104,15.27581422,.0001268,43.0002,217.7344,251.3246,108.7468,0,U,59660,999,11905,.54371892E-4,.1234E-4,0
STARLINK-31880,2024-084H,2026-06-12T21:13:38.420544,15.27579792,.00015857,43.0067,220.5919,297.2216,62.8474,0,U,59661,999,11897,.15961687E-4,.177E-5,0
STARLINK-31886,2024-084J,2026-06-13T10:19:30.198432,15.27577345,.00010693,43.0019,221.2620,244.6034,115.4707,0,U,59662,999,11901,.7912246E-5,-.44E-6,0
STARLINK-31909,2024-084K,2026-06-13T10:52:36.205248,15.27580096,.00011718,43.0023,220.6131,272.4794,87.5923,0,U,59663,999,11902,.26545384E-4,.468E-5,0
STARLINK-31910,2024-084L,2026-06-12T21:05:32.463744,15.27575483,.00017735,43.0117,223.9950,275.2992,84.7658,0,U,59664,999,11893,.5258086E-5,-.118E-5,0
STARLINK-31902,2024-084N,2026-06-13T16:00:01.999584,15.27546079,.00013548,42.9994,220.0252,278.3799,261.2360,0,U,59666,999,582,.19186266E-2,.52859E-3,0
STARLINK-31913,2024-084P,2026-06-12T21:08:04.024896,15.27582476,.00032762,43.0134,220.5557,283.9389,76.1098,0,U,59667,999,11897,.33128688E-4,.649E-5,0
STARLINK-31866,2024-084Q,2026-06-12T20:39:10.873728,15.27573992,.00015318,43.0022,216.9240,278.8264,81.2414,0,U,59668,999,11901,-.1147696E-5,-.294E-5,0
STARLINK-31917,2024-084R,2026-06-12T21:31:26.713344,15.27573945,.00009009,42.9941,224.1224,228.8422,131.2352,0,U,59669,999,11893,.14527923E-4,.138E-5,0
STARLINK-31860,2024-084S,2026-06-13T10:01:40.973376,15.27593436,.00024882,43.0193,217.7176,288.3261,71.7321,0,U,59670,999,11903,.14192519E-3,.3646E-4,0
STARLINK-31854,2024-084T,2026-06-13T12:06:48.045600,15.27580512,.0001006,43.0011,187.6558,274.4877,85.5860,0,U,59671,999,11938,.53978808E-4,.1224E-4,0
STARLINK-31842,2024-084U,2026-06-13T10:12:47.549376,15.27587166,.00018186,43.0124,217.7665,287.0545,73.0107,0,U,59672,999,11905,.57594149E-4,.1323E-4,0
STARLINK-31871,2024-084V,2026-06-12T21:20:19.566240,15.27586257,.00016447,43.0041,224.0686,266.9202,93.1461,0,U,59673,999,11893,.53064915E-4,.1198E-4,0
STARLINK-31875,2024-084W,2026-06-12T21:17:21.145920,15.27574800,.00018527,43.0037,220.6022,269.2755,90.7885,0,U,59674,999,11897,.16990764E-4,.205E-5,0
STARLINK-31877,2024-084X,2026-06-13T10:15:47.810016,15.27581814,.00032905,43.0125,221.2432,286.3727,73.6763,0,U,59675,999,11901,.32108988E-4,.621E-5,0
STARLINK-31884,2024-084Y,2026-06-11T07:46:08.851584,15.27578474,.00009474,42.9949,232.9804,172.2837,187.8030,0,U,59676,999,11869,.45119161E-4,.98E-5,0
STARLINK-32108,2024-086A,2026-06-12T21:58:52.997952,15.27577325,.00011738,43.0019,245.7148,280.7973,79.2747,0,U,59682,999,11862,.24348019E-4,.408E-5,0
